[{"OBJECT_NAME":"STARLINK-30135","OBJECT_ID":"2023-079V","EPOCH":"2026-03-09T22:00:01.999584","MEAN_MOTION":15.18771874,"ECCENTRICITY":0.00020934,"INCLINATION":43,"RA_OF_ASC_NODE":105.5533,"ARG_OF_PERICENTER":301.1686,"MEAN_ANOMALY":80.9348,"EPHEMERIS_TYPE":0,"CLASSIFICATION_TYPE":"U","NORAD_CAT_ID":56842,"ELEMENT_SET_NO":999,"REV_AT_EPOCH":578,"BSTAR":0.059413815,"MEAN_MOTION_DOT":0.01369076,"MEAN_MOTION_DDOT":0},{"OBJECT_NAME":"ION SCV-011","OBJECT_ID":"2023-084AB","EPOCH":"2026-03-09T22:35:16.566144","MEAN_MOTION":15.27752464,"ECCENTRICITY":0.00079323,"INCLINATION":98.1356,"RA_OF_ASC_NODE":247.1056,"ARG_OF_PERICENTER":30.3898,"MEAN_ANOMALY":329.7798,"EPHEMERIS_TYPE":0,"CLASSIFICATION_TYPE":"U","NORAD_CAT_ID":56957,"ELEMENT_SET_NO":999,"REV_AT_EPOCH":15065,"BSTAR":0.0002590454,"MEAN_MOTION_DOT":6.943e-5,"MEAN_MOTION_DDOT":0}]
